BEIDOU-3 G4             
1 56564U 23066A   26062.90347635 -.00000125  00000+0  00000+0 0  9993
2 56564   0.6497 310.8399 0002018 160.2002 175.9057  1.00272210 10335
NVS-01 (IRNSS-1J)       
1 56759U 23076A   26062.96873667 -.00000352  00000+0  00000+0 0  9997
2 56759   2.4196 248.6418 0007429  44.8155 346.5182  1.00274195 10063
COSMOS 2569 [GLONASS-K2]
1 57517U 23114A   26062.20130409  .00000024  00000+0  00000+0 0  9995
2 57517  65.2411  76.1935 0012888 291.5477  68.3625  2.13103933 20006
BEIDOU-3 M28            
1 58654U 23207A   26061.98162292 -.00000017  00000+0  00000+0 0  9993
2 58654  55.6589  65.8845 0004896 302.3246  57.6586  1.86229755 14862
BEIDOU-3 M26            
1 58655U 23207B   26062.31605649 -.00000020  00000+0  00000+0 0  9994
2 58655  55.6613  65.8595 0005721 288.0153  71.9513  1.86229607 14852
GSAT0225 (GALILEO 29)   
1 59598U 24079A   26062.23239214  .00000013  00000+0  00000+0 0  9992
2 59598  55.0491 104.0400 0002532 257.0391 101.5580  1.70474849 11501
GSAT0227 (GALILEO 30)   
1 59600U 24079C   26060.07188623  .00000010  00000+0  00000+0 0  9990
2 59600  55.0426 104.0995 0000415  85.7874 274.2997  1.70474778 11525
GSAT0232 (GALILEO 32)   
1 61182U 24167A   26048.66150565  .00000069  00000+0  00000+0 0  9995
2 61182  55.2225 224.5881 0003600 296.6314 116.1306  1.70443939  8265
GSAT0226 (GALILEO 31)   
1 61183U 24167B   26061.41649845  .00000011  00000+0  00000+0 0  9995
2 61183  55.2184 224.2466 0001610 129.2375 282.9718  1.70474130  9035
BEIDOU-3 M25            
1 61186U 24168B   26062.40841492 -.00000058  00000+0  00000+0 0  9993
2 61186  54.5666 305.9191 0004276 318.3720 220.5115  1.86230084  9813
BEIDOU-3 M27            
1 61187U 24168C   26062.74108155 -.00000060  00000+0  00000+0 0  9996
2 61187  54.5619 305.8909 0002966  19.9056 157.0021  1.86230254  7297
NAVSTAR 83 (USA 440)    
1 62339U 24242A   26059.41642148 -.00000100  00000+0  00000+0 0  9999
2 62339  54.8934 338.5934 0015681 355.9356 192.4850  2.00569355  9070
NVS-02 (IRNSS-1K)       
1 62850U 25020A   26062.86329790  .00000865  00000+0  84732-3 0  9995
2 62850  20.8407 297.9307 7349650  79.3809 348.5923  2.17714156  8681
QZS-6 (MICHIBIKI-6)     
1 62876U 25023A   26062.96093663 -.00000246  00000+0  00000+0 0  9990
2 62876   0.0434 307.3401 0001881  29.0631 261.7472  1.00270223  3907
COSMOS 2584 [GLONASS-K2]
1 63130U 25042A   26059.74188024  .00000039  00000+0  00000+0 0  9992
2 63130  65.0213  76.4877 0007822 236.2440 123.7373  2.13103267  7739
NAVSTAR 84 (USA 545)    
1 64202U 25116A   26062.39238152 -.00000077  00000+0  00000+0 0  9991
2 64202  55.1633  35.3874 0008474 325.1064  37.8908  2.00553198  5758
COSMOS 2596 [GLONASS-K1]
1 65590U 25206B   26062.63521083 -.00000053  00000+0  00000+0 0  9991
2 65590  64.6947 318.6620 0012898 315.4778 221.7374  2.13100238  3663
