[{"OBJECT_NAME":"BEIDOU-3 G4 (C62)","OBJECT_ID":"2023-066A","EPOCH":"2026-03-03T21:41:00.356640","MEAN_MOTION":1.0027221,"ECCENTRICITY":0.00020186,"INCLINATION":0.6497,"RA_OF_ASC_NODE":310.8399,"ARG_OF_PERICENTER":160.2002,"MEAN_ANOMALY":175.9057,"EPHEMERIS_TYPE":0,"CLASSIFICATION_TYPE":"U","NORAD_CAT_ID":56564,"ELEMENT_SET_NO":999,"REV_AT_EPOCH":1033,"BSTAR":0,"MEAN_MOTION_DOT":-1.25e-6,"MEAN_MOTION_DDOT":0},{"OBJECT_NAME":"NVS-01 (IRNSS-1J)","OBJECT_ID":"2023-076A","EPOCH":"2026-03-03T23:14:58.848288","MEAN_MOTION":1.00274195,"ECCENTRICITY":0.00074298,"INCLINATION":2.4196,"RA_OF_ASC_NODE":248.6418,"ARG_OF_PERICENTER":44.8155,"MEAN_ANOMALY":346.5182,"EPHEMERIS_TYPE":0,"CLASSIFICATION_TYPE":"U","NORAD_CAT_ID":56759,"ELEMENT_SET_NO":999,"REV_AT_EPOCH":1006,"BSTAR":0,"MEAN_MOTION_DOT":-3.52e-6,"MEAN_MOTION_DDOT":0},{"OBJECT_NAME":"COSMOS 2569 (703K)","OBJECT_ID":"2023-114A","EPOCH":"2026-03-03T04:49:52.673376","MEAN_MOTION":2.13103933,"ECCENTRICITY":0.00128885,"INCLINATION":65.2411,"RA_OF_ASC_NODE":76.1935,"ARG_OF_PERICENTER":291.5477,"MEAN_ANOMALY":68.3625,"EPHEMERIS_TYPE":0,"CLASSIFICATION_TYPE":"U","NORAD_CAT_ID":57517,"ELEMENT_SET_NO":999,"REV_AT_EPOCH":2000,"BSTAR":0,"MEAN_MOTION_DOT":2.4e-7,"MEAN_MOTION_DDOT":0},{"OBJECT_NAME":"BEIDOU-3 M28 (C50)","OBJECT_ID":"2023-207A","EPOCH":"2026-03-02T23:33:32.220288","MEAN_MOTION":1.86229755,"ECCENTRICITY":0.00048964,"INCLINATION":55.6589,"RA_OF_ASC_NODE":65.8845,"ARG_OF_PERICENTER":302.3246,"MEAN_ANOMALY":57.6586,"EPHEMERIS_TYPE":0,"CLASSIFICATION_TYPE":"U","NORAD_CAT_ID":58654,"ELEMENT_SET_NO":999,"REV_AT_EPOCH":1486,"BSTAR":0,"MEAN_MOTION_DOT":-1.7e-7,"MEAN_MOTION_DDOT":0},{"OBJECT_NAME":"BEIDOU-3 M26 (C48)","OBJECT_ID":"2023-207B","EPOCH":"2026-03-03T07:35:07.280736","MEAN_MOTION":1.86229607,"ECCENTRICITY":0.00057218,"INCLINATION":55.6613,"RA_OF_ASC_NODE":65.8595,"ARG_OF_PERICENTER":288.0153,"MEAN_ANOMALY":71.9513,"EPHEMERIS_TYPE":0,"CLASSIFICATION_TYPE":"U","NORAD_CAT_ID":58655,"ELEMENT_SET_NO":999,"REV_AT_EPOCH":1485,"BSTAR":0,"MEAN_MOTION_DOT":-2.0e-7,"MEAN_MOTION_DDOT":0},{"OBJECT_NAME":"GSAT0225 (GALILEO 29)","OBJECT_ID":"2024-079A","EPOCH":"2026-03-03T05:34:38.680896","MEAN_MOTION":1.70474849,"ECCENTRICITY":0.00025321,"INCLINATION":55.0491,"RA_OF_ASC_NODE":104.04,"ARG_OF_PERICENTER":257.0391,"MEAN_ANOMALY":101.558,"EPHEMERIS_TYPE":0,"CLASSIFICATION_TYPE":"U","NORAD_CAT_ID":59598,"ELEMENT_SET_NO":999,"REV_AT_EPOCH":1150,"BSTAR":0,"MEAN_MOTION_DOT":1.3e-7,"MEAN_MOTION_DDOT":0},{"OBJECT_NAME":"GSAT0227 (GALILEO 30)","OBJECT_ID":"2024-079C","EPOCH":"2026-03-01T01:43:30.970272","MEAN_MOTION":1.70474778,"ECCENTRICITY":4.154e-5,"INCLINATION":55.0426,"RA_OF_ASC_NODE":104.0995,"ARG_OF_PERICENTER":85.7874,"MEAN_ANOMALY":274.2997,"EPHEMERIS_TYPE":0,"CLASSIFICATION_TYPE":"U","NORAD_CAT_ID":59600,"ELEMENT_SET_NO":999,"REV_AT_EPOCH":1152,"BSTAR":0,"MEAN_MOTION_DOT":1.0e-7,"MEAN_MOTION_DDOT":0},{"OBJECT_NAME":"GSAT0232 (GALILEO 32)","OBJECT_ID":"2024-167A","EPOCH":"2026-02-17T15:52:34.088160","MEAN_MOTION":1.70443939,"ECCENTRICITY":0.00036004,"INCLINATION":55.2225,"RA_OF_ASC_NODE":224.5881,"ARG_OF_PERICENTER":296.6314,"MEAN_ANOMALY":116.1306,"EPHEMERIS_TYPE":0,"CLASSIFICATION_TYPE":"U","NORAD_CAT_ID":61182,"ELEMENT_SET_NO":999,"REV_AT_EPOCH":826,"BSTAR":0,"MEAN_MOTION_DOT":6.9e-7,"MEAN_MOTION_DDOT":0},{"OBJECT_NAME":"GSAT0226 (GALILEO 31)","OBJECT_ID":"2024-167B","EPOCH":"2026-03-02T09:59:45.466080","MEAN_MOTION":1.7047413,"ECCENTRICITY":0.00016109,"INCLINATION":55.2184,"RA_OF_ASC_NODE":224.2466,"ARG_OF_PERICENTER":129.2375,"MEAN_ANOMALY":282.9718,"EPHEMERIS_TYPE":0,"CLASSIFICATION_TYPE":"U","NORAD_CAT_ID":61183,"ELEMENT_SET_NO":999,"REV_AT_EPOCH":903,"BSTAR":0,"MEAN_MOTION_DOT":1.1e-7,"MEAN_MOTION_DDOT":0},{"OBJECT_NAME":"BEIDOU-3 M25 (C47)","OBJECT_ID":"2024-168B","EPOCH":"2026-03-03T09:48:07.049088","MEAN_MOTION":1.86230084,"ECCENTRICITY":0.00042767,"INCLINATION":54.5666,"RA_OF_ASC_NODE":305.9191,"ARG_OF_PERICENTER":318.372,"MEAN_ANOMALY":220.5115,"EPHEMERIS_TYPE":0,"CLASSIFICATION_TYPE":"U","NORAD_CAT_ID":61186,"ELEMENT_SET_NO":999,"REV_AT_EPOCH":981,"BSTAR":0,"MEAN_MOTION_DOT":-5.8e-7,"MEAN_MOTION_DDOT":0},{"OBJECT_NAME":"BEIDOU-3 M27 (C49)","OBJECT_ID":"2024-168C","EPOCH":"2026-03-03T17:47:09.445920","MEAN_MOTION":1.86230254,"ECCENTRICITY":0.00029665,"INCLINATION":54.5619,"RA_OF_ASC_NODE":305.8909,"ARG_OF_PERICENTER":19.9056,"MEAN_ANOMALY":157.0021,"EPHEMERIS_TYPE":0,"CLASSIFICATION_TYPE":"U","NORAD_CAT_ID":61187,"ELEMENT_SET_NO":999,"REV_AT_EPOCH":729,"BSTAR":0,"MEAN_MOTION_DOT":-6.0e-7,"MEAN_MOTION_DDOT":0},{"OBJECT_NAME":"GPS BIII-7  (PRN 01)","OBJECT_ID":"2024-242A","EPOCH":"2026-02-28T09:59:38.815872","MEAN_MOTION":2.00569355,"ECCENTRICITY":0.0015681,"INCLINATION":54.8934,"RA_OF_ASC_NODE":338.5934,"ARG_OF_PERICENTER":355.9356,"MEAN_ANOMALY":192.485,"EPHEMERIS_TYPE":0,"CLASSIFICATION_TYPE":"U","NORAD_CAT_ID":62339,"ELEMENT_SET_NO":999,"REV_AT_EPOCH":907,"BSTAR":0,"MEAN_MOTION_DOT":-1.0e-6,"MEAN_MOTION_DDOT":0},{"OBJECT_NAME":"NVS-02 (IRNSS-1K)","OBJECT_ID":"2025-020A","EPOCH":"2026-03-03T20:43:08.938560","MEAN_MOTION":2.17714156,"ECCENTRICITY":0.73496501,"INCLINATION":20.8407,"RA_OF_ASC_NODE":297.9307,"ARG_OF_PERICENTER":79.3809,"MEAN_ANOMALY":348.5923,"EPHEMERIS_TYPE":0,"CLASSIFICATION_TYPE":"U","NORAD_CAT_ID":62850,"ELEMENT_SET_NO":999,"REV_AT_EPOCH":868,"BSTAR":0.00084732101,"MEAN_MOTION_DOT":8.65e-6,"MEAN_MOTION_DDOT":0},{"OBJECT_NAME":"QZS-6 (QZSS/PRN 200)","OBJECT_ID":"2025-023A","EPOCH":"2026-03-03T23:03:44.924832","MEAN_MOTION":1.00270223,"ECCENTRICITY":0.00018812,"INCLINATION":0.0434,"RA_OF_ASC_NODE":307.3401,"ARG_OF_PERICENTER":29.0631,"MEAN_ANOMALY":261.7472,"EPHEMERIS_TYPE":0,"CLASSIFICATION_TYPE":"U","NORAD_CAT_ID":62876,"ELEMENT_SET_NO":999,"REV_AT_EPOCH":390,"BSTAR":0,"MEAN_MOTION_DOT":-2.46e-6,"MEAN_MOTION_DDOT":0},{"OBJECT_NAME":"COSMOS 2584 (704K)","OBJECT_ID":"2025-042A","EPOCH":"2026-02-28T17:48:18.452736","MEAN_MOTION":2.13103267,"ECCENTRICITY":0.00078227,"INCLINATION":65.0213,"RA_OF_ASC_NODE":76.4877,"ARG_OF_PERICENTER":236.244,"MEAN_ANOMALY":123.7373,"EPHEMERIS_TYPE":0,"CLASSIFICATION_TYPE":"U","NORAD_CAT_ID":63130,"ELEMENT_SET_NO":999,"REV_AT_EPOCH":773,"BSTAR":0,"MEAN_MOTION_DOT":3.9e-7,"MEAN_MOTION_DDOT":0},{"OBJECT_NAME":"GPS BIII-8  (PRN 21)","OBJECT_ID":"2025-116A","EPOCH":"2026-03-03T09:25:01.763328","MEAN_MOTION":2.00553198,"ECCENTRICITY":0.0008474,"INCLINATION":55.1633,"RA_OF_ASC_NODE":35.3874,"ARG_OF_PERICENTER":325.1064,"MEAN_ANOMALY":37.8908,"EPHEMERIS_TYPE":0,"CLASSIFICATION_TYPE":"U","NORAD_CAT_ID":64202,"ELEMENT_SET_NO":999,"REV_AT_EPOCH":575,"BSTAR":0,"MEAN_MOTION_DOT":-7.7e-7,"MEAN_MOTION_DDOT":0},{"OBJECT_NAME":"COSMOS 2596 (708K)","OBJECT_ID":"2025-206B","EPOCH":"2026-03-03T15:14:42.215712","MEAN_MOTION":2.13100238,"ECCENTRICITY":0.0012898,"INCLINATION":64.6947,"RA_OF_ASC_NODE":318.662,"ARG_OF_PERICENTER":315.4778,"MEAN_ANOMALY":221.7374,"EPHEMERIS_TYPE":0,"CLASSIFICATION_TYPE":"U","NORAD_CAT_ID":65590,"ELEMENT_SET_NO":999,"REV_AT_EPOCH":366,"BSTAR":0,"MEAN_MOTION_DOT":-5.3e-7,"MEAN_MOTION_DDOT":0}]
